0 METEOR 2-5 DEB
1 29292U 79095R   13287.59318813  .00001345  00000-0  69668-3 0  3055
2 29292 081.2000 032.5377 0011209 230.3888 130.1127 14.14368908461436
0 METEOR 2-5 DEB
1 29292U 79095R   13289.99832673  .00001551  00000-0  80429-3 0  3064
2 29292 081.1965 030.1713 0009954 248.7530 111.2581 14.14380123461778
0 METEOR 2-5 DEB
1 29292U 79095R   13292.96947802  .00001882  00000-0  97674-3 0  3074
2 29292 081.2062 027.2850 0011083 169.7404 190.5076 14.14397625462195
